STARLINK-31126          
1 58675U 23211J   26068.06041162  .00000160  00000+0  15355-4 0  9991
2 58675  43.0014  88.3695 0001584 283.5016  76.5659 15.27578005122370
FLOCK 4G-18             
1 62680U 25009BZ  26068.19114186  .00011766  00000+0  44319-3 0  9995
2 62680  97.4054 150.5008 0004100 335.7331  24.3715 15.27241676121267
